satname,norad_id,inclination_deg,eccentricity,mean_motion_rev_per_day,perigee_km,apogee_km,l1,l2
STARLINK-1280,45388,53.0512,0.0010363,15.45888778,421.7138296963476,435.82182063698747,1 45388U 20019AE  25340.26871360  .00035606  00000+0  72511-3 0  9995,2 45388  53.0512 214.2279 0010363 114.8990 245.3095 15.45888778315804
STARLINK-1283,45389,53.0515,0.0010376,15.35146286,453.3902643309175,467.58177482114206,1 45389U 20019AF  25340.58816010  .00019229  00000+0  56447-3 0  9995,2 45389  53.0515 194.3261 0010376 123.0863 237.1136 15.35146286316123
STARLINK-1284,45390,53.0547,0.0001387,15.06396106,546.2629450128361,548.1840400134588,1 45390U 20019AG  25340.40277067  .00000767  00000+0  70419-4 0  9994,2 45390  53.0547 205.4034 0001387  93.3028 266.8120 15.06396106315943
STARLINK-1297,45395,53.0529,0.0001366,15.06389547,546.2975880737404,548.1896020523118,1 45395U 20019AM  25340.04156049 -.00000980  00000+0 -46949-4 0  9995,2 45395  53.0529 207.0221 0001366  86.6344 273.4801 15.06389547315072
STARLINK-1307,45397,53.0517,0.0001167,15.06416994,546.3512921669544,547.9676563640469,1 45397U 20019AP  25340.36590842  .00006220  00000+0  43589-3 0  9992,2 45397  53.0517 205.5663 0001167  87.1003 273.0120 15.06416994315764
STARLINK-1255,45399,53.0452,0.000813,15.35070784,455.1502720127173,466.27023764907244,1 45399U 20019AR  25340.01071202  .00042525  00000+0  12348-2 0  9996,2 45399  53.0452 188.1049 0008130 127.9009 232.2729 15.35070784315963
STARLINK-1260,45404,53.0546,0.0001428,15.06393816,546.2415685918759,548.2194535530389,1 45404U 20019AW  25340.63222182  .00000327  00000+0  40885-4 0  9999,2 45404  53.0546 194.3667 0001428  95.8045 264.3107 15.06393816315839
STARLINK-1263,45405,53.0523,0.0001508,15.06393949,546.1857580846536,548.2744488030521,1 45405U 20019AX  25340.55112782  .00004032  00000+0  28948-3 0  9997,2 45405  53.0523 194.7356 0001508  87.4803 272.6358 15.06393949315828
STARLINK-1265,45406,53.0526,0.0001455,15.06404837,546.1890972114106,548.204369327791,1 45406U 20019AY  25340.29310759  .00001609  00000+0  12691-3 0  9998,2 45406  53.0526 195.8945 0001455  90.1703 269.9453 15.06404837315788
STARLINK-1278,45408,53.0514,0.0009528,15.38304249,444.61662007773975,457.6304589618485,1 45408U 20019BA  25340.66736989  .00024453  00000+0  64562-3 0  9994,2 45408  53.0514 214.5419 0009528 109.9732 250.2298 15.38304249315569
STARLINK-1296,45412,53.0534,0.0001507,15.06400441,546.166556513128,548.2538561611173,1 45412U 20019BE  25340.29679322  .00000463  00000+0  49959-4 0  9994,2 45412  53.0534 195.8735 0001507  89.2654 270.8508 15.06400441315782
STARLINK-1298,45413,53.0449,0.0008207,15.5915411,384.54926782959683,395.65865854657295,1 45413U 20019BF  25340.54968546  .00055359  00000+0  69519-3 0  9999,2 45413  53.0449 158.2129 0008207  84.8505 275.3443 15.59154110316436
STARLINK-1309,45414,53.0528,0.0001525,15.06404496,546.1416648263894,548.2538919337949,1 45414U 20019BG  25340.31153709  .00001495  00000+0  11923-3 0  9990,2 45414  53.0528 195.8112 0001525  91.9069 268.2095 15.06404496315771
STARLINK-1316,45415,53.0549,0.0001395,15.06402823,546.2368209465076,548.1689907802429,1 45415U 20019BH  25340.33733627  .00000426  00000+0  47513-4 0  9994,2 45415  53.0549 195.6944 0001395  82.6309 277.4838 15.06402823315819
STARLINK-1318,45416,53.0462,0.0003439,15.66234167,367.3710658292566,372.0122223706685,1 45416U 20019BJ  25340.66670139  .00066212  00000+0  63000-3 0  9992,2 45416  53.0462 147.2915 0003439 156.6404  72.8312 15.66234167  5948
STARLINK-1286,45417,53.0525,0.0005703,15.39881284,442.5679858963258,450.3521212956566,1 45417U 20019BK  25340.65815110  .00033557  00000+0  83762-3 0  9995,2 45417  53.0525 214.5930 0005703 114.3856 245.7743 15.39881284315831
STARLINK-1308,45419,53.0547,0.0001822,15.06386603,545.9908121296376,548.5144241064809,1 45419U 20019BM  25340.10606083  .00009890  00000+0  68215-3 0  9993,2 45419  53.0547 226.7263 0001822 108.9384 251.1803 15.06386603315369
STARLINK-1329,45531,53.0548,9.01e-05,15.11752181,530.2338088293509,531.4788094236555,1 45531U 20025A   25340.66670139  .01299098  00000+0  69458-1 0  9999,2 45531  53.0548 164.1684 0000901  73.8111 283.3513 15.11752181  5738
STARLINK-1338,45532,53.0537,0.0001194,15.06389829,546.415840423927,548.0696211036329,1 45532U 20025B   25340.55019504 -.00005161  00000+0 -32796-3 0  9995,2 45532  53.0537 164.7360 0001194 107.8268 252.2851 15.06389829311054
STARLINK-1350,45535,53.0741,0.0001631,15.33446412,464.42276981152645,466.65517691403693,1 45535U 20025E   25340.60599944  .00020566  00000+0  63695-3 0  9991,2 45535  53.0741 109.4211 0001631 102.9876 257.1307 15.33446412311863
STARLINK-1362,45538,53.0546,0.0001476,15.06401341,546.1852671289453,548.229628809986,1 45538U 20025H   25340.25066207  .00000916  00000+0  80402-4 0  9999,2 45538  53.0546 165.8012 0001476  84.6753 275.4404 15.06401341311011
STARLINK-1368,45540,53.0545,0.0001565,15.06394816,546.1436266613782,548.3112657330375,1 45540U 20025K   25340.52071825  .00000809  00000+0  73206-4 0  9999,2 45540  53.0545 164.8708 0001565  88.3354 271.7814 15.06394816311046
STARLINK-1371,45542,53.054,0.0001557,15.06407393,546.110626308172,548.267172793292,1 45542U 20025M   25340.22582661 -.00003668  00000+0 -22745-3 0  9992,2 45542  53.0540 166.1911 0001557 111.4467 248.6689 15.06407393311002
STARLINK-1372,45543,53.0525,0.0001287,15.06394108,546.3383214450378,548.1209108120293,1 45543U 20025N   25340.66078195 -.00001570  00000+0 -86560-4 0  9999,2 45543  53.0525 164.2438 0001287  93.7747 266.3389 15.06394108310161
STARLINK-1373,45544,53.0536,0.0001316,15.06400152,546.29971627129,548.1224678891258,1 45544U 20025P   25340.54650789 -.00001098  00000+0 -54803-4 0  9992,2 45544  53.0536 164.7531 0001316  93.7727 266.3413 15.06400152311058
STARLINK-1294,45551,53.0458,0.0002227,15.66759101,366.68193896681805,369.6867504937609,1 45551U 20025W   25340.66670139  .00083279  00000+0  77299-3 0  9996,2 45551  53.0458  82.7106 0002227 152.1227 107.3695 15.66759101  5898
STARLINK-1325,45554,53.0517,0.0007953,15.75841831,336.8920067842073,347.5814332232467,1 45554U 20025Z   25340.66670139  .00243910  00000+0  15073-2 0  9990,2 45554  53.0517  74.3260 0007953 353.0258  29.6443 15.75841831  5958
STARLINK-1327,45555,53.055,0.0001344,15.06388935,546.314699373137,548.1762421812828,1 45555U 20025AA  25340.65157146  .00000488  00000+0  51652-4 0  9994,2 45555  53.0550 144.2821 0001344  90.8636 269.2507 15.06388935311341
STARLINK-1356,45564,53.0542,0.0001352,15.06397259,546.2836504604202,548.1562669820578,1 45564U 20025AK  25340.45620733  .00000450  00000+0  49104-4 0  9997,2 45564  53.0542 145.1596 0001352  86.4303 273.6840 15.06397259311317
STARLINK-1357,45565,53.0605,0.0006986,15.38088538,446.99067546877086,456.53341041156636,1 45565U 20025AL  25340.65198147  .00024751  00000+0  65834-3 0  9996,2 45565  53.0605 122.0075 0006986 138.5441 221.6093 15.38088538311667
STARLINK-1361,45567,53.0551,0.0001481,15.06390077,546.2163220454922,548.2676192966055,1 45567U 20025AN  25340.60735038  .00003170  00000+0  23166-3 0  9993,2 45567  53.0551 144.4796 0001481  80.2700 279.8457 15.06390077311346
STARLINK-1363,45568,53.0515,0.0006348,15.48029196,418.1748572900842,426.8089357370982,1 45568U 20025AP  25340.65275823  .00045003  00000+0  84908-3 0  9992,2 45568  53.0515 132.1558 0006348 200.3808 159.6946 15.48029196311512
STARLINK-1366,45569,53.0508,0.0005162,15.45044726,427.73165297040214,434.76166065769667,1 45569U 20025AQ  25340.59617975  .00033351  00000+0  70076-3 0  9998,2 45569  53.0508 132.3935 0005162 211.0176 149.0525 15.45044726311504
STARLINK-1376,45570,53.0538,0.000141,15.06396519,546.2457510714985,548.1987023734337,1 45570U 20025AR  25340.60364719 -.00001551  00000+0 -85279-4 0  9998,2 45570  53.0538 144.4997 0001410  90.6035 269.5115 15.06396519311339
STARLINK-1320,45572,53.0559,0.0005626,15.47813504,419.2972832788437,426.9500617875783,1 45572U 20025AT  25340.55409449  .00041526  00000+0  79048-3 0  9994,2 45572  53.0559  78.2177 0005626 115.2706 244.8885 15.47813504312288
STARLINK-1321,45573,53.0529,0.000119,15.06393436,546.4075568535281,548.055794598351,1 45573U 20025AU  25340.65616968 -.00000952  00000+0 -45040-4 0  9998,2 45573  53.0529 134.2648 0001190  83.3029 276.8095 15.06393436311185
STARLINK-1328,45576,53.0445,0.0004001,15.83823782,316.9589499118565,322.31851005098815,1 45576U 20025AX  25340.66670139  .00252798  00000+0  10863-2 0  9990,2 45576  53.0445  92.6398 0004001 174.5902 103.9149 15.83823782  5986
STARLINK-1331,45578,53.0544,0.0001323,15.06406679,546.2748669348421,548.1073087468849,1 45578U 20025AZ  25340.63405463  .00002768  00000+0  20459-3 0  9998,2 45578  53.0544 134.3624 0001323  77.5982 282.5155 15.06406679311492
STARLINK-1333,45580,53.0557,0.0001218,15.06397785,546.3748383213606,548.0618548837929,1 45580U 20025BB  25340.64051438 -.00001153  00000+0 -58523-4 0  9994,2 45580  53.0557 144.3296 0001218  89.2563 270.8566 15.06397785311340
STARLINK-1335,45581,53.0552,0.0001651,15.06398599,546.0724760489911,548.3592275606579,1 45581U 20025BC  25340.64510736 -.00001910  00000+0 -10933-3 0  9999,2 45581  53.0552 134.3090 0001651 118.9794 241.1360 15.06398599311486
STARLINK-1337,45582,53.0554,0.0001418,15.06392024,546.2539854455099,548.2180212292551,1 45582U 20025BD  25340.60088559 -.00000291  00000+0 -61792-6 0  9992,2 45582  53.0554 134.5148 0001418  81.1186 278.9964 15.06392024311476
STARLINK-1347,45586,53.0526,0.000666,15.36896327,450.74261011425915,459.84473977328526,1 45586U 20025BH  25340.67109249  .00038870  00000+0  10664-2 0  9993,2 45586  53.0526 112.6042 0006660 138.6598 221.4910 15.36896327311784
STARLINK-1360,45588,53.0394,0.0004282,15.86896811,308.12481518662844,313.85338277779647,1 45588U 20025BK  25340.66670139  .00231056  00000+0  85862-3 0  9999,2 45588  53.0394  19.0909 0004282  17.3318 217.6160 15.86896811  6049
